NORAD_CAT_ID,OBJECT_NAME,OBJECT_TYPE,EPOCH,MEAN_MOTION,ECCENTRICITY,INCLINATION,RA_OF_ASC_NODE,ARG_OF_PERICENTER,MEAN_ANOMALY,BSTAR,MEAN_MOTION_DOT,MEAN_MOTION_DDOT,TLE_LINE0,TLE_LINE1,TLE_LINE2,SEMIMAJOR_AXIS,PERIOD,APOGEE,PERIGEE,DECAYED
55671.0,STARLINK-5460,PAYLOAD,2023-11-01 20:26:25,14.98328574,0.0002712,70.0003,169.7021,274.0092,86.0756,0.00010161,1.12e-05,0.0,0 STARLINK-5460,1 55671U 23021AV  23305.85168278  .00001120  00000-0  10161-3 0  9996,2 55671  70.0003 169.7021 0002712 274.0092  86.0756 14.98328574 40342,6950.197,96.107,573.947,570.177,0.0
55671.0,STARLINK-5460,PAYLOAD,2023-11-01 22:02:33,14.98331976,0.0002733,70.0002,169.5339,273.5639,86.5208,8.0677e-05,8.7e-06,0.0,0 STARLINK-5460,1 55671U 23021AV  23305.91844126  .00000870  00000-0  80677-4 0  9997,2 55671  70.0002 169.5339 0002733 273.5639  86.5208 14.98331976 40656,6950.187,96.107,573.951,570.152,0.0
55671.0,STARLINK-5460,PAYLOAD,2023-11-02 14:03:54,14.98330982,0.0002591,70.0005,167.8509,273.8452,86.2411,-5.3624e-05,-7.33e-06,0.0,0 STARLINK-5460,1 55671U 23021AV  23306.58604540 -.00000733  00000-0 -53624-4 0  9997,2 55671  70.0005 167.8509 0002591 273.8452  86.2411 14.98330982 40757,6950.19,96.107,573.856,570.254,0.0
55671.0,STARLINK-5460,PAYLOAD,2023-11-02 20:28:26,14.98329553,0.0002642,70.0005,167.178,272.826,87.2596,-5.2806e-05,-7.23e-06,0.0,0 STARLINK-5460,1 55671U 23021AV  23306.85308570 -.00000723  00000-0 -52806-4 0  9991,2 55671  70.0005 167.1780 0002642 272.8260  87.2596 14.98329553 40492,6950.194,96.107,573.896,570.223,0.0
55671.0,STARLINK-5460,PAYLOAD,2023-11-02 22:04:34,14.98330511,0.00026,70.0005,167.0097,271.2323,88.8538,-4.302e-05,-6.06e-06,0.0,0 STARLINK-5460,1 55671U 23021AV  23306.91984471 -.00000606  00000-0 -43020-4 0  9996,2 55671  70.0005 167.0097 0002600 271.2323  88.8538 14.98330511 40803,6950.191,96.107,573.863,570.249,0.0
55671.0,STARLINK-5460,PAYLOAD,2023-11-03 07:41:22,14.98331526,0.0002563,70.0005,166.0001,271.1252,88.9613,-9.0988e-05,-1.178e-05,0.0,0 STARLINK-5460,1 55671U 23021AV  23307.32040473 -.00001178  00000-0 -90988-4 0  9997,2 55671  70.0005 166.0001 0002563 271.1252  88.9613 14.98331526 40863,6950.188,96.107,573.835,570.272,0.0
55671.0,STARLINK-5460,PAYLOAD,2023-11-03 22:06:35,14.98329731,0.0002677,70.0005,164.4848,269.5168,90.5684,-2.6091e-05,-4.04e-06,0.0,0 STARLINK-5460,1 55671U 23021AV  23307.92124379 -.00000404  00000-0 -26091-4 0  9996,2 55671  70.0005 164.4848 0002677 269.5168  90.5684 14.98329731 40959,6950.194,96.107,573.919,570.198,0.0
55671.0,STARLINK-5460,PAYLOAD,2023-11-04 01:18:51,14.98330479,0.0002648,70.0003,164.1482,269.4733,90.6123,-3.1473e-05,-4.68e-06,0.0,0 STARLINK-5460,1 55671U 23021AV  23308.05476346 -.00000468  00000-0 -31473-4 0  9995,2 55671  70.0003 164.1482 0002648 269.4733  90.6123 14.98330479 40672,6950.191,96.107,573.897,570.216,0.0
55671.0,STARLINK-5460,PAYLOAD,2023-11-04 07:43:23,14.98346421,0.0002635,70.0004,163.4749,272.6169,87.4689,-0.00036559,-4.454e-05,0.0,0 STARLINK-5460,1 55671U 23021AV  23308.32180076 -.00004454  00000-0 -36559-3 0  9995,2 55671  70.0004 163.4749 0002635 272.6169  87.4689 14.98346421 40716,6950.142,96.106,573.838,570.176,0.0
55671.0,STARLINK-5460,PAYLOAD,2023-11-04 12:31:48,14.98327237,0.0002658,70.0,162.9697,267.4438,92.6417,1.6422e-05,1.03e-06,0.0,0 STARLINK-5460,1 55671U 23021AV  23308.52208458  .00000103  00000-0  16422-4 0  9995,2 55671  70.0000 162.9697 0002658 267.4438  92.6417 14.98327237 41042,6950.201,96.107,573.914,570.219,0.0
55671.0,STARLINK-5460,PAYLOAD,2023-11-04 20:32:28,14.98328276,0.0002748,69.9999,162.1278,265.3891,94.6954,1.8773e-05,1.31e-06,0.0,0 STARLINK-5460,1 55671U 23021AV  23308.85588408  .00000131  00000-0  18773-4 0  9999,2 55671  69.9999 162.1278 0002748 265.3891  94.6954 14.98328276 40796,6950.198,96.107,573.973,570.153,0.0
55671.0,STARLINK-5460,PAYLOAD,2023-11-04 22:08:36,14.98328048,0.0002706,69.9998,161.9594,264.4138,95.6712,2.9223e-05,2.56e-06,0.0,0 STARLINK-5460,1 55671U 23021AV  23308.92264402  .00000256  00000-0  29223-4 0  9992,2 55671  69.9998 161.9594 0002706 264.4138  95.6712 14.98328048 41107,6950.199,96.107,573.945,570.183,0.0
55671.0,STARLINK-5460,PAYLOAD,2023-11-05 07:45:24,14.98336092,0.0002862,69.9994,160.949,271.2591,88.824,3.8538e-05,3.67e-06,0.0,0 STARLINK-5460,1 55671U 23021AV  23309.32319843  .00000367  00000-0  38538-4 0  9999,2 55671  69.9994 160.9490 0002862 271.2591  88.8240 14.98336092 40869,6950.174,96.107,574.028,570.05,0.0
55671.0,STARLINK-5460,PAYLOAD,2023-11-05 20:34:28,14.98342937,0.0002694,69.9993,159.6027,268.4839,91.6011,0.00015141,1.715e-05,0.0,0 STARLINK-5460,1 55671U 23021AV  23309.85726938  .00001715  00000-0  15141-3 0  9996,2 55671  69.9993 159.6027 0002694 268.4839  91.6011 14.98342937 40947,6950.153,96.106,573.89,570.146,0.0
55671.0,STARLINK-5460,PAYLOAD,2023-11-05 22:10:35,14.98344587,0.0002695,69.9992,159.4343,268.6048,91.4803,0.00016735,1.905e-05,0.0,0 STARLINK-5460,1 55671U 23021AV  23309.92402765  .00001905  00000-0  16735-3 0  9994,2 55671  69.9992 159.4343 0002695 268.6048  91.4803 14.98344587 41255,6950.148,96.106,573.886,570.14,0.0
55671.0,STARLINK-5460,PAYLOAD,2023-11-06 14:11:57,14.98332986,0.0002357,69.9995,157.7517,274.3662,85.7228,6.5091e-05,6.84e-06,0.0,0 STARLINK-5460,1 55671U 23021AV  23310.59163492  .00000684  00000-0  65091-4 0  9993,2 55671  69.9995 157.7517 0002357 274.3662  85.7228 14.98332986 41351,6950.184,96.107,573.687,570.41,0.0
55671.0,STARLINK-5460,PAYLOAD,2023-11-06 20:36:29,14.98324144,0.0002352,70.0001,157.0781,266.2463,93.8427,6.335e-05,6.63e-06,0.0,0 STARLINK-5460,1 55671U 23021AV  23310.85868003  .00000663  00000-0  63350-4 0  9995,2 55671  70.0001 157.0781 0002352 266.2463  93.8427 14.98324144 41091,6950.211,96.107,573.711,570.441,0.0
55671.0,STARLINK-5460,PAYLOAD,2023-11-06 22:12:38,14.98322993,0.0002518,70.0002,156.9104,268.2502,91.8369,3.3109e-05,3.02e-06,0.0,0 STARLINK-5460,1 55671U 23021AV  23310.92544167  .00000302  00000-0  33109-4 0  9994,2 55671  70.0002 156.9104 0002518 268.2502  91.8369 14.98322993 41407,6950.215,96.107,573.83,570.329,0.0
55671.0,STARLINK-5460,PAYLOAD,2023-11-07 14:13:58,14.98327111,0.0002667,69.9999,155.2268,273.695,86.3904,-0.00012971,-1.64e-05,0.0,0 STARLINK-5460,1 55671U 23021AV  23311.59304370 -.00001640  00000-0 -12971-3 0  9999,2 55671  69.9999 155.2268 0002667 273.6950  86.3904 14.98327111 41506,6950.202,96.107,573.92,570.213,0.0
55671.0,STARLINK-5460,PAYLOAD,2023-11-07 20:38:31,14.98326608,0.0002553,69.9999,154.5535,270.25,89.8366,-0.00015115,-1.896e-05,0.0,0 STARLINK-5460,1 55671U 23021AV  23311.86008497 -.00001896  00000-0 -15115-3 0  9996,2 55671  69.9999 154.5535 0002553 270.2500  89.8366 14.98326608 41244,6950.203,96.107,573.843,570.294,0.0
55671.0,STARLINK-5460,PAYLOAD,2023-11-08 14:15:59,14.98323014,0.0002853,69.999,152.7022,274.2811,85.8022,4.4236e-05,4.35e-06,0.0,0 STARLINK-5460,1 55671U 23021AV  23312.59444273  .00000435  00000-0  44236-4 0  9996,2 55671  69.9990 152.7022 0002853 274.2811  85.8022 14.98323014 41656,6950.214,96.107,574.062,570.097,0.0
55671.0,STARLINK-5460,PAYLOAD,2023-11-08 22:16:39,14.98343973,0.0002629,69.9993,151.8608,275.4515,84.6344,-0.00024228,-2.984e-05,0.0,0 STARLINK-5460,1 55671U 23021AV  23312.92823794 -.00002984  00000-0 -24228-3 0  9993,2 55671  69.9993 151.8608 0002629 275.4515  84.6344 14.98343973 41700,6950.15,96.106,573.842,570.187,0.0
55671.0,STARLINK-5460,PAYLOAD,2023-11-08 23:52:48,14.98326112,0.000304,69.9992,151.6923,277.5707,82.5107,7.6981e-05,8.26e-06,0.0,0 STARLINK-5460,1 55671U 23021AV  23312.99500149  .00000826  00000-0  76981-4 0  9991,2 55671  69.9992 151.6923 0003040 277.5707  82.5107 14.98326112 41419,6950.205,96.107,574.183,569.957,0.0
55671.0,STARLINK-5460,PAYLOAD,2023-11-09 14:18:00,14.98328679,0.0002774,69.9992,150.1776,269.5637,90.5205,0.00012357,1.382e-05,0.0,0 STARLINK-5460,1 55671U 23021AV  23313.59583951  .00001382  00000-0  12357-3 0  9994,2 55671  69.9992 150.1776 0002774 269.5637  90.5205 14.98328679 41806,6950.197,96.107,573.99,570.134,0.0
55671.0,STARLINK-5460,PAYLOAD,2023-11-09 22:18:40,14.98332322,0.0002906,69.9989,149.3355,274.2961,85.7866,0.00015245,1.727e-05,0.0,0 STARLINK-5460,1 55671U 23021AV  23313.92963661  .00001727  00000-0  15245-3 0  9993,2 55671  69.9989 149.3355 0002906 274.2961  85.7866 14.98332322 41859,6950.186,96.107,574.07,570.031,0.0
55671.0,STARLINK-5460,PAYLOAD,2023-11-09 23:54:48,14.98331371,0.0002553,69.9989,149.1667,270.1362,89.9505,0.00015511,1.758e-05,0.0,0 STARLINK-5460,1 55671U 23021AV  23313.99639735  .00001758  00000-0  15511-3 0  9992,2 55671  69.9989 149.1667 0002553 270.1362  89.9505 14.98331371 41568,6950.189,96.107,573.828,570.279,0.0
55671.0,STARLINK-5460,PAYLOAD,2023-11-10 14:20:01,14.98330769,0.0002876,69.9991,147.6523,274.0347,86.0483,1.2345e-05,5.4e-07,0.0,0 STARLINK-5460,1 55671U 23021AV  23314.59724092  .00000054  00000-0  12345-4 0  9991,2 55671  69.9991 147.6523 0002876 274.0347  86.0483 14.98330769 41955,6950.191,96.107,574.054,570.057,0.0
55671.0,STARLINK-5460,PAYLOAD,2023-11-10 19:08:25,14.9833145,0.0002873,69.9991,147.1474,273.7389,86.3442,1.8636e-05,1.29e-06,0.0,0 STARLINK-5460,1 55671U 23021AV  23314.79752000  .00000129  00000-0  18636-4 0  9995,2 55671  69.9991 147.1474 0002873 273.7389  86.3442 14.98331450 41983,6950.188,96.107,574.05,570.057,0.0
55671.0,STARLINK-5460,PAYLOAD,2023-11-10 23:56:49,14.98331558,0.0002874,69.9991,146.6424,273.7018,86.3812,1.6705e-05,1.06e-06,0.0,0 STARLINK-5460,1 55671U 23021AV  23314.99779949  .00000106  00000-0  16705-4 0  9998,2 55671  69.9991 146.6424 0002874 273.7018  86.3812 14.98331558 41713,6950.188,96.107,574.051,570.056,0.0
55671.0,STARLINK-5460,PAYLOAD,2023-11-11 14:22:02,14.98331692,0.0002858,69.9991,145.1275,273.4497,86.6335,-4.596e-05,-6.41e-06,0.0,0 STARLINK-5460,1 55671U 23021AV  23315.59864041 -.00000641  00000-0 -45960-4 0  9994,2 55671  69.9991 145.1275 0002858 273.4497  86.6335 14.98331692 42107,6950.188,96.107,574.039,570.066,0.0
